AMC-3                   
1 24936U 97050A   26088.20731492 -.00000275  00000+0  00000+0 0  9990
2 24936   7.9515  64.9847 0003381 305.9004 178.3497  1.00272429 51638
NSS-11                  
1 26554U 00059A   26087.23864338  .00000007  00000+0  00000+0 0  9991
2 26554   1.9181  82.3299 0003084 283.2199  82.0052  1.00271838 40489
AMC-6                   
1 26580U 00067A   26088.14905973  .00000069  00000+0  00000+0 0  9999
2 26580   0.0508  44.8653 0003464 329.0736  91.2065  1.00271030 93091
AMC-11                  
1 28252U 04017A   26088.13794728 -.00000069  00000+0  00000+0 0  9990
2 28252   0.1049  79.8169 0003145 288.5877 116.6846  1.00271854 80067
AMC-15                  
1 28446U 04041A   26088.13766951 -.00000108  00000+0  00000+0 0  9993
2 28446   0.0445  21.6602 0002282 330.3927 138.9977  1.00271701 78500
NSS-10                  
1 28526U 05003A   26087.82253885 -.00000266  00000+0  00000+0 0  9998
2 28526   6.2498  71.4127 0003262 291.2220  82.2564  1.00271945 52358
ASTRA 1KR               
1 29055U 06012A   26088.11879159  .00000100  00000+0  00000+0 0  9994
2 29055   0.2680  82.0327 0003446 281.1890 245.0480  1.00274182 44890
ASTRA 1L                
1 31306U 07016A   26088.19989421 -.00000203  00000+0  00000+0 0  9998
2 31306   1.1156  82.1337 0004007 301.4455 210.4639  1.00271456 44184
ASTRA 4A                
1 32299U 07057A   26088.18748707  .00000013  00000+0  00000+0 0  9992
2 32299   0.0429  37.3133 0002548 335.5904 245.9729  1.00272782 50844
ASTRA 1M                
1 33436U 08057A   26088.11879159  .00000102  00000+0  00000+0 0  9995
2 33436   0.0936  73.7757 0002363   4.2069 170.6885  1.00278938 44933
NSS-9                   
1 33749U 09008A   26088.15143359  .00000053  00000+0  00000+0 0  9994
2 33749   1.0554  83.3649 0002160 272.5336  68.2395  1.00273490 62718
SES-7 (PROTOSTAR 2)     
1 34941U 09027A   26087.99399110 -.00000364  00000+0  00000+0 0  9995
2 34941   0.0746  77.7962 0001772 248.8102 325.8664  1.00272020 61825
NSS-12                  
1 36032U 09058A   26088.12647348  .00000052  00000+0  00000+0 0  9990
2 36032   0.0607  53.8757 0005031 295.4962 299.6778  1.00271310 60111
SES-1                   
1 36516U 10016A   26088.22053354  .00000000  00000+0  00000+0 0  9995
2 36516   0.0130 187.2467 0002626 179.0193 158.7653  1.00270256 58234
ASTRA 3B                
1 36581U 10021A   26088.04850463  .00000118  00000+0  00000+0 0  9999
2 36581   1.2617  84.5329 0003491 299.0620 203.8237  1.00269501 58066
SES-3                   
1 37748U 11035A   26088.16608030 -.00000120  00000+0  00000+0 0  9999
2 37748   1.1204  83.9260 0003504 285.1753 134.2480  1.00271200 53799
ASTRA 1N                
1 37775U 11041A   26088.11879159  .00000100  00000+0  00000+0 0  9990
2 37775   0.1119  53.2597 0005028 338.1954 217.0131  1.00272932 43729
SES-2                   
1 37809U 11049A   26088.16928699 -.00000215  00000+0  00000+0 0  9993
2 37809   0.0515  66.6376 0002858 297.1889 156.6830  1.00271842 53160
QUETZSAT 1              
1 37826U 11054A   26088.16209818 -.00000261  00000+0  00000+0 0  9994
2 37826   0.0403  46.4677 0002778 327.9667 153.4753  1.00272284 49077
SES-4                   
1 38087U 12007A   26088.18211370 -.00000187  00000+0  00000+0 0  9998
2 38087   0.0310  64.8567 0002226 310.0306 215.2638  1.00271311 51428
SES-5                   
1 38652U 12036A   26088.18748707  .00000014  00000+0  00000+0 0  9995
2 38652   0.0635 303.9606 0001969  58.7730 256.3156  1.00271352 43659
ASTRA 2F                
1 38778U 12051A   26088.12075346  .00000130  00000+0  00000+0 0  9996
2 38778   0.0560 251.9381 0001853  31.6721 334.5544  1.00272482 40336
SES-6                   
1 39172U 13026A   26088.17847368 -.00000281  00000+0  00000+0 0  9992
2 39172   0.0360 308.3924 0002107  78.6749 183.2472  1.00270446 46925
O3B FM5                 
1 39188U 13031A   26087.08443740 -.00000029  00000+0  00000+0 0  9990
2 39188   0.1013   7.8394 0003249 349.0661   3.0879  5.00116427232981
O3B FM4                 
1 39189U 13031B   26086.40408870 -.00000028  00000+0  00000+0 0  9990
2 39189   0.0535 345.5776 0005069  27.4764 346.9547  5.00115128232954
O3B FM2                 
1 39190U 13031C   26088.06885816 -.00000029  00000+0  00000+0 0  9996
2 39190   0.0526 338.9765 0002804  26.2407 354.7810  5.00115972233098
O3B PFM                 
1 39191U 13031D   26088.08299074 -.00000029  00000+0  00000+0 0  9994
2 39191   0.0691   4.8412 0005545  23.4012 331.7830  5.00115152232665
ASTRA 2E                
1 39285U 13056A   26088.12084014  .00000131  00000+0  00000+0 0  9999
2 39285   0.0750  33.2488 0002374 330.0553 255.2291  1.00269000 45614
SES-8                   
1 39460U 13071A   26088.06271804 -.00000289  00000+0  00000+0 0  9994
2 39460   0.0212 251.4054 0002022 138.6907 273.9407  1.00271616 43632
ASTRA 5B                
1 39617U 14011B   26088.04850463  .00000117  00000+0  00000+0 0  9994
2 39617   0.0873 299.9338 0003625  41.6912 245.7844  1.00269347 43865
O3B FM3                 
1 40079U 14038A   26086.35059271 -.00000028  00000+0  00000+0 0  9999
2 40079   0.0529 354.5796 0000866  77.5671 287.8583  5.00115572208951
O3B FM7                 
1 40080U 14038B   26087.89581251 -.00000029  00000+0  00000+0 0  9990
2 40080   0.0574 348.2877 0004269   7.0561   4.6475  5.00115549213865
O3B FM6                 
1 40081U 14038C   26088.12270237 -.00000029  00000+0  00000+0 0  9997
2 40081   0.0540 351.7915 0002640  13.8749 354.3320  5.00115661213819
O3B FM8                 
1 40082U 14038D   26087.97611576 -.00000029  00000+0  00000+0 0  9995
2 40082   0.0547 351.0075 0002664  20.1497 348.8441  5.00115967213938
O3B FM10                
1 40348U 14083A   26086.40408949 -.00000028  00000+0  00000+0 0  9994
2 40348   0.0455 334.8109 0002686  31.2091 353.9787  5.00115499205802
O3B FM11                
1 40349U 14083B   26086.41678984 -.00000028  00000+0  00000+0 0  9994
2 40349   0.0578   0.2533 0003039 353.3632   6.3752  5.00115538205823
O3B FM12                
1 40350U 14083C   26088.04299313 -.00000029  00000+0  00000+0 0  9993
2 40350   0.0570 359.6671 0002598   2.7427 357.5867  5.00115880205915
O3B FM9                 
1 40351U 14083D   26088.06982325 -.00000029  00000+0  00000+0 0  9998
2 40351   0.0590   0.2606 0002709   6.2009 353.5374  5.00115908206050
ASTRA 2G                
1 40364U 14089A   26088.12075346  .00000000  00000+0  00000+0 0  9999
2 40364   0.0216   8.2515 0004735  28.4358 221.5062  1.00269236 41167
SES-9                   
1 41380U 16013A   26087.99407775 -.00000364  00000+0  00000+0 0  9990
2 41380   0.0186 244.0927 0001683 159.2929 249.1648  1.00270557 36635
SES-10                  
1 42432U 17017A   26088.03065123 -.00000292  00000+0  00000+0 0  9997
2 42432   0.0338  51.0786 0002652 322.5275 116.9572  1.00272220 32955
SES-15                  
1 42709U 17026A   26087.94699391  .00000040  00000+0  00000+0 0  9993
2 42709   0.0363 335.6778 0000682  15.9177  46.5064  1.00270319  6623
SES-11 (ECHOSTAR 105)   
1 42967U 17063A   26088.16573365 -.00000109  00000+0  00000+0 0  9994
2 42967   0.0463  24.9149 0002575 351.1703 125.1925  1.00271708 30926
SES-14                  
1 43175U 18012B   26088.03446457 -.00000298  00000+0  00000+0 0  9997
2 43175   0.0150 133.0016 0000895 214.2144 164.1253  1.00273709  6223
O3B FM15                
1 43231U 18024A   26087.93670610 -.00000029  00000+0  00000+0 0  9993
2 43231   0.0500   2.8478 0002658   1.3696 355.7802  5.00115661147002
O3B FM16                
1 43232U 18024B   26087.98906969 -.00000029  00000+0  00000+0 0  9998
2 43232   0.0467   5.8797 0002710 357.6765 356.4411  5.00115912146928
O3B FM14                
1 43233U 18024C   26088.02983575 -.00000029  00000+0  00000+0 0  9993
2 43233   0.0453   5.2544 0002856   1.8335 352.9115  5.00115648146940
O3B FM13                
1 43234U 18024D   26084.69755415 -.00000024  00000+0  00000+0 0  9998
2 43234   0.0470 335.8508 0003967 348.6026  35.5167  5.00115556146887
SES-12                  
1 43488U 18049A   26088.06271804 -.00000289  00000+0  00000+0 0  9999
2 43488   0.0425  31.2140 0001998 271.9611   0.8604  1.00271607 28614
O3B FM20                
1 44112U 19020A   26087.85597447 -.00000029  00000+0  00000+0 0  9996
2 44112   0.0528   0.8112 0002697 355.2694   3.9126  5.00115487127551
O3B FM19                
1 44113U 19020B   26088.08298005 -.00000029  00000+0  00000+0 0  9991
2 44113   0.0579 352.9847 0004062  13.0204 353.9951  5.00115272127431
O3B FM17                
1 44114U 19020C   26087.96315084 -.00000029  00000+0  00000+0 0  9995
2 44114   0.0363 346.8044 0002671  10.9157   2.2740  5.00115428127513
O3B FM18                
1 44115U 19020D   26088.10934499 -.00000029  00000+0  00000+0 0  9990
2 44115   0.0531   0.9767 0002729   6.3261 352.6965  5.00115273127643
SES-17                  
1 49332U 21095A   26088.03056457 -.00000292  00000+0  00000+0 0  9994
2 49332   0.0448  24.8284 0001031 333.1809 132.3139  1.00269272 17053
SES-22                  
1 52933U 22071A   26088.14905973  .00000085  00000+0  00000+0 0  9997
2 52933   0.0227  94.0629 0001376 274.1218  93.0083  1.00273593  6725
SES-20                  
1 53960U 22123A   26088.16608030 -.00000120  00000+0  00000+0 0  9993
2 53960   0.0327  89.7559 0001566 335.6841  77.7996  1.00270322 12733
SES-21                  
1 53961U 22123B   26088.14905973  .00000050  00000+0  00000+0 0  9999
2 53961   0.0284  69.4740 0001048 299.4337 100.2997  1.00270434  6410
O3B MPOWER F1           
1 54755U 22174A   26088.12084014 -.00000029  00000+0  00000+0 0  9996
2 54755   0.0627 349.5108 0005553  36.3314 214.6654  5.00114848 61355
O3B MPOWER F2           
1 54756U 22174B   26087.95395605 -.00000029  00000+0  00000+0 0  9998
2 54756   0.0600 346.6653 0005954  19.4223 353.9149  5.00115541 61432
SES-18                  
1 55970U 23038A   26087.99886775 -.00000120  00000+0  00000+0 0  9996
2 55970   0.0190 252.1197 0002026  68.7022 122.0618  1.00270722 11294
SES-19                  
1 55971U 23038B   26087.94569391  .00000068  00000+0  00000+0 0  9994
2 55971   0.0412 278.1931 0001841  83.7814  29.9246  1.00273241 11275
O3B MPOWER F4           
1 56367U 23059A   26088.01830213 -.00000029  00000+0  00000+0 0  9998
2 56367   0.0637   5.0421 0006951  16.8743 338.1086  5.00116079 54598
O3B MPOWER F3           
1 56368U 23059B   26088.05160932 -.00000029  00000+0  00000+0 0  9997
2 56368   0.0649   5.0836 0006574   6.4527 348.4742  5.00116681 50710
O3B MPOWER F5           
1 58346U 23175A   26087.55260673 -.00000029  00000+0  00000+0 0  9991
2 58346   0.0420   7.7471 0004230   7.8909 344.3705  5.00115677 45403
O3B MPOWER F6           
1 58347U 23175B   26087.85319953 -.00000029  00000+0  00000+0 0  9991
2 58347   0.0497   4.9234 0004927 350.8116   4.2562  5.00116377 44330
ASTRA 1P (SES-24)       
1 60086U 24115A   26087.90507161  .00000100  00000+0  00000+0 0  9994
2 60086   0.0633  15.8343 0003763 303.4629 212.0192  1.00272290  6392
O3B MPOWER F7           
1 62362U 24244A   26088.11930272 -.00000029  00000+0  00000+0 0  9994
2 62362   0.0716   1.9567 0006105   4.2889 353.7573  5.00115146 22512
O3B MPOWER F8           
1 62363U 24244B   26087.88637291 -.00000029  00000+0  00000+0 0  9993
2 62363   0.0438 315.4779 0006455  43.4683   1.0476  5.00115549 16859
